{
"type": "FeatureCollection",
"name": "Alameda_TravelAnalysisZone_949",
"crs": { "type": "name", "properties": { "name": "urn:ogc:def:crs:OGC:1.3:CRS84" } },
"features": [
{ "type": "Feature", "properties": { "SUPERD": 18, "TAZ1454": 949, "Shape__Are": 0.0, "Shape__Len": 0.0 }, "geometry": { "type": "MultiPolygon", "coordinates": [ [ [ [ -122.225179000168779, 37.75522800084137 ], [ -122.225578999823341, 37.755528000803309 ], [ -122.225979000200056, 37.7557280003332 ], [ -122.22577900041631, 37.756628000465149 ], [ -122.22667899999945, 37.757428000310931 ], [ -122.229878999792689, 37.759628000437928 ], [ -122.229579000455246, 37.759928000641438 ], [ -122.230378999776988, 37.760428000861182 ], [ -122.231079000309549, 37.760928000280323 ], [ -122.233579000143493, 37.762428000675946 ], [ -122.233978999537811, 37.762728000921406 ], [ -122.23487900012374, 37.763128000603984 ], [ -122.2358789994002, 37.763628000959216 ], [ -122.237179000043142, 37.764328000797491 ], [ -122.238479000202631, 37.765028000734922 ], [ -122.239079000178549, 37.7652280007161 ], [ -122.240779000164579, 37.766228001084166 ], [ -122.240179000287313, 37.76702800046445 ], [ -122.239479000282515, 37.767728000361203 ], [ -122.238778999622284, 37.768528000305075 ], [ -122.238078999964017, 37.769428000254358 ], [ -122.237378999718501, 37.770228000533621 ], [ -122.236778999505788, 37.771028000690102 ], [ -122.235, 37.773 ], [ -122.229, 37.7701 ], [ -122.2224, 37.7658 ], [ -122.225179000168779, 37.75522800084137 ] ] ] ] } }
]
}
